[{"OBJECT_NAME":"STARLINK-3560","OBJECT_ID":"2022-022H","EPOCH":"2026-03-09T01:25:57.071712","MEAN_MOTION":15.08833754,"ECCENTRICITY":0.00013855,"INCLINATION":53.2181,"RA_OF_ASC_NODE":11.955,"ARG_OF_PERICENTER":97.902,"MEAN_ANOMALY":262.213,"EPHEMERIS_TYPE":0,"CLASSIFICATION_TYPE":"U","NORAD_CAT_ID":51859,"ELEMENT_SET_NO":999,"REV_AT_EPOCH":22306,"BSTAR":-5.9470896e-5,"MEAN_MOTION_DOT":-1.234e-5,"MEAN_MOTION_DDOT":0},{"OBJECT_NAME":"DELTA 1 DEB","OBJECT_ID":"1977-065EC","EPOCH":"2026-03-09T02:08:40.996032","MEAN_MOTION":13.78682297,"ECCENTRICITY":0.05923881,"INCLINATION":29.1022,"RA_OF_ASC_NODE":69.0593,"ARG_OF_PERICENTER":230.0658,"MEAN_ANOMALY":124.6392,"EPHEMERIS_TYPE":0,"CLASSIFICATION_TYPE":"U","NORAD_CAT_ID":10470,"ELEMENT_SET_NO":999,"REV_AT_EPOCH":39795,"BSTAR":0.00059129389,"MEAN_MOTION_DOT":2.469e-5,"MEAN_MOTION_DDOT":0}]
